{
  "norad_id": 68877,
  "name": "KUIPER-00482",
  "history": [
    {
      "epoch": "2026-05-02T10:00:03.000096Z",
      "apogee_km": 453.8593055193569,
      "perigee_km": 449.9675427876746,
      "latitude_deg": 15.865794153495635,
      "longitude_deg": -99.49140968887947,
      "height_km": 451.17597186528013,
      "semi_major_axis_km": 6830.050424153515,
      "eccentricity": 0.0002849,
      "inclination_deg": 51.8825,
      "raan_deg": 103.6682,
      "arg_perigee_deg": 94.529,
      "mean_anomaly_deg": 65.1349,
      "mean_motion_rev_day": 15.38037403
    }
  ]
}