{"fetched_at":"2026-05-03T06:27:58Z","count":17151,"tles":[{"name":"KUIPER-00482","line1":"1 68877U 26095P   26122.41670139  .00070487  00000+0  18471-2 0  9990","line2":"2 68877  51.8825 103.6682 0002849  94.5290  65.1349 15.38037403  1413","category":"Other"}]}